IXPE                    
1 49954U 21121A   23362.73529135  .00006006  00000+0  45162-3 0  9991
2 49954   0.2287 223.9012 0010056 258.5162 237.6796 14.95956644112166
